start=new Date('2022-02-11T00:00:00.000Z').valueOf();
sats=[{"MEAN_ELEMENT_THEORY":"SGP4","CLASSIFICATION_TYPE":"U","ELEMENT_SET_NO":"999","SEMIMAJOR_AXIS":"6925.263","OBJECT_ID":"2021-018AK","TIME_SYSTEM":"UTC","FILE":"3297078","INCLINATION":"53.0547","EPHEMERIS_TYPE":"0","DECAY_DATE":null,"OBJECT_NAME":"STARLINK-2403","ARG_OF_PERICENTER":"65.3453","GP_ID":"195691554","RA_OF_ASC_NODE":"102.0701","NORAD_CAT_ID":"47820","PERIOD":"95.590","TLE_LINE1":"1 47820U 21018AK  22041.56825121  .00012541  00000-0  85866-3 0  9991","MEAN_MOTION_DOT":"0.00012541","COUNTRY_CODE":"US","REV_AT_EPOCH":"5182","APOAPSIS":"548.067","CENTER_NAME":"EARTH","MEAN_MOTION":"15.06428003","MEAN_MOTION_DDOT":"0.0000000000000","RCS_SIZE":"LARGE","PERIAPSIS":"546.189","ECCENTRICITY":"0.00013560","MEAN_ANOMALY":"294.7678","OBJECT_TYPE":"PAYLOAD","TLE_LINE2":"2 47820  53.0547 102.0701 0001356  65.3453 294.7678 15.06428003 51827","SITE":"AFETR","REF_FRAME":"TEME","EPOCH":"2022-02-10T13:38:16.904544","LAUNCH_DATE":"2021-03-11","BSTAR":"0.00085866000000"},{"REF_FRAME":"TEME","SITE":"AFETR","TLE_LINE2":"2 47821  53.0533  91.8636 0001508  74.1780 285.9376 15.06416842 52304","OBJECT_TYPE":"PAYLOAD","MEAN_ANOMALY":"285.9376","EPOCH":"2022-02-10T14:41:55.603104","BSTAR":"0.00037600000000","LAUNCH_DATE":"2021-03-11","APOAPSIS":"548.206","MEAN_MOTION":"15.06416842","CENTER_NAME":"EARTH","RCS_SIZE":"LARGE","PERIAPSIS":"546.118","MEAN_MOTION_DDOT":"0.0000000000000","ECCENTRICITY":"0.00015080","RA_OF_ASC_NODE":"91.8636","MEAN_MOTION_DOT":"0.00005326","TLE_LINE1":"1 47821U 21018AL  22041.61244911  .00005326  00000-0  37600-3 0  9996","PERIOD":"95.591","NORAD_CAT_ID":"47821","REV_AT_EPOCH":"5230","COUNTRY_CODE":"US","OBJECT_ID":"2021-018AL","SEMIMAJOR_AXIS":"6925.297","ELEMENT_SET_NO":"999","CLASSIFICATION_TYPE":"U","MEAN_ELEMENT_THEORY":"SGP4","INCLINATION":"53.0533","FILE":"3297147","TIME_SYSTEM":"UTC","OBJECT_NAME":"STARLINK-2406","DECAY_DATE":null,"EPHEMERIS_TYPE":"0","GP_ID":"195714143","ARG_OF_PERICENTER":"74.1780"},{"INCLINATION":"53.0540","FILE":"3297147","TIME_SYSTEM":"UTC","OBJECT_ID":"2021-018AM","ELEMENT_SET_NO":"999","SEMIMAJOR_AXIS":"6925.361","MEAN_ELEMENT_THEORY":"SGP4","CLASSIFICATION_TYPE":"U","GP_ID":"195714895","ARG_OF_PERICENTER":"53.2121","DECAY_DATE":null,"OBJECT_NAME":"STARLINK-2407","EPHEMERIS_TYPE":"0","MEAN_MOTION_DOT":"0.00003090","TLE_LINE1":"1 47822U 21018AM  22041.88891058  .00003090  00000-0  22625-3 0  9993","PERIOD":"95.592","NORAD_CAT_ID":"47822","RA_OF_ASC_NODE":"100.6173","REV_AT_EPOCH":"5221","COUNTRY_CODE":"US","MEAN_MOTION":"15.06395939","CENTER_NAME":"EARTH","APOAPSIS":"548.355","ECCENTRICITY":"0.00016300","RCS_SIZE":"LARGE","PERIAPSIS":"546.097","MEAN_MOTION_DDOT":"0.0000000000000","SITE":"AFETR","REF_FRAME":"TEME","TLE_LINE2":"2 47822  53.0540 100.6173 0001630  53.2121 306.9017 15.06395939 52210","OBJECT_TYPE":"PAYLOAD","MEAN_ANOMALY":"306.9017","BSTAR":"0.00022625000000","LAUNCH_DATE":"2021-03-11","EPOCH":"2022-02-10T21:20:01.874112"},{"RA_OF_ASC_NODE":"92.3455","NORAD_CAT_ID":"47823","PERIOD":"95.591","MEAN_MOTION_DOT":"0.00002253","TLE_LINE1":"1 47823U 21018AN  22041.50650830  .00002253  00000-0  17003-3 0  9998","COUNTRY_CODE":"US","REV_AT_EPOCH":"5195","CLASSIFICATION_TYPE":"U","MEAN_ELEMENT_THEORY":"SGP4","SEMIMAJOR_AXIS":"6925.308","ELEMENT_SET_NO":"999","OBJECT_ID":"2021-018AN","TIME_SYSTEM":"UTC","FILE":"3297078","INCLINATION":"53.0555","EPHEMERIS_TYPE":"0","DECAY_DATE":null,"OBJECT_NAME":"STARLINK-2408","ARG_OF_PERICENTER":"59.1315","GP_ID":"195691560","MEAN_ANOMALY":"300.9828","OBJECT_TYPE":"PAYLOAD","TLE_LINE2":"2 47823  53.0555  92.3455 0001574  59.1315 300.9828 15.06413233 51956","REF_FRAME":"TEME","SITE":"AFETR","EPOCH":"2022-02-10T12:09:22.317120","LAUNCH_DATE":"2021-03-11","BSTAR":"0.00017003000000","APOAPSIS":"548.263","CENTER_NAME":"EARTH","MEAN_MOTION":"15.06413233","MEAN_MOTION_DDOT":"0.0000000000000","PERIAPSIS":"546.083","RCS_SIZE":"LARGE","ECCENTRICITY":"0.00015740"},{"FILE":"3297147","TIME_SYSTEM":"UTC","INCLINATION":"53.0544","SEMIMAJOR_AXIS":"6925.333","ELEMENT_SET_NO":"999","CLASSIFICATION_TYPE":"U","MEAN_ELEMENT_THEORY":"SGP4","OBJECT_ID":"2021-018AP","ARG_OF_PERICENTER":"61.5452","GP_ID":"195713394","EPHEMERIS_TYPE":"0","OBJECT_NAME":"STARLINK-2409","DECAY_DATE":null,"PERIOD":"95.592","NORAD_CAT_ID":"47824","TLE_LINE1":"1 47824U 21018AP  22041.82717630  .00000202  00000-0  32453-4 0  9995","MEAN_MOTION_DOT":"0.00000202","RA_OF_ASC_NODE":"90.8990","COUNTRY_CODE":"US","REV_AT_EPOCH":"5233","CENTER_NAME":"EARTH","MEAN_MOTION":"15.06404971","APOAPSIS":"548.156","ECCENTRICITY":"0.00013830","MEAN_MOTION_DDOT":"0.0000000000000","RCS_SIZE":"LARGE","PERIAPSIS":"546.241","OBJECT_TYPE":"PAYLOAD","MEAN_ANOMALY":"298.5676","SITE":"AFETR","REF_FRAME":"TEME","TLE_LINE2":"2 47824  53.0544  90.8990 0001383  61.5452 298.5676 15.06404971 52334","LAUNCH_DATE":"2021-03-11","BSTAR":"0.00003245300000","EPOCH":"2022-02-10T19:51:08.032320"},{"REV_AT_EPOCH":"5195","COUNTRY_CODE":"US","MEAN_MOTION_DOT":"-0.00000626","TLE_LINE1":"1 47825U 21018AQ  22041.51386859 -.00000626  00000-0 -23160-4 0  9994","PERIOD":"95.592","NORAD_CAT_ID":"47825","RA_OF_ASC_NODE":"92.3013","GP_ID":"195691838","ARG_OF_PERICENTER":"71.2092","DECAY_DATE":null,"OBJECT_NAME":"STARLINK-2410","EPHEMERIS_TYPE":"0","INCLINATION":"53.0556","FILE":"3297079","TIME_SYSTEM":"UTC","OBJECT_ID":"2021-018AQ","ELEMENT_SET_NO":"999","SEMIMAJOR_AXIS":"6925.360","MEAN_ELEMENT_THEORY":"SGP4","CLASSIFICATION_TYPE":"U","BSTAR":"-0.00002316000000","LAUNCH_DATE":"2021-03-11","EPOCH":"2022-02-10T12:19:58.246176","REF_FRAME":"TEME","SITE":"AFETR","TLE_LINE2":"2 47825  53.0556  92.3013 0001627  71.2092 288.9074 15.06396346 51958","OBJECT_TYPE":"PAYLOAD","MEAN_ANOMALY":"288.9074","ECCENTRICITY":"0.00016270","RCS_SIZE":"LARGE","PERIAPSIS":"546.098","MEAN_MOTION_DDOT":"0.0000000000000","MEAN_MOTION":"15.06396346","CENTER_NAME":"EARTH","APOAPSIS":"548.352"},{"RA_OF_ASC_NODE":"91.7327","TLE_LINE1":"1 47826U 21018AR  22041.64287164 -.00002556  00000-0 -15269-3 0  9992","MEAN_MOTION_DOT":"-0.00002556","PERIOD":"95.591","NORAD_CAT_ID":"47826","REV_AT_EPOCH":"5231","COUNTRY_CODE":"US","OBJECT_ID":"2021-018AR","ELEMENT_SET_NO":"999","SEMIMAJOR_AXIS":"6925.307","CLASSIFICATION_TYPE":"U","MEAN_ELEMENT_THEORY":"SGP4","INCLINATION":"53.0551","FILE":"3297147","TIME_SYSTEM":"UTC","DECAY_DATE":null,"OBJECT_NAME":"STARLINK-2411","EPHEMERIS_TYPE":"0","GP_ID":"195714396","ARG_OF_PERICENTER":"53.3674","REF_FRAME":"TEME","SITE":"AFETR","TLE_LINE2":"2 47826  53.0551  91.7327 0001661  53.3674 306.7468 15.06413536 52318","OBJECT_TYPE":"PAYLOAD","MEAN_ANOMALY":"306.7468","EPOCH":"2022-02-10T15:25:44.109696","BSTAR":"-0.00015269000000","LAUNCH_DATE":"2021-03-11","APOAPSIS":"548.322","MEAN_MOTION":"15.06413536","CENTER_NAME":"EARTH","RCS_SIZE":"LARGE","PERIAPSIS":"546.022","MEAN_MOTION_DDOT":"0.0000000000000","ECCENTRICITY":"0.00016610"},{"REV_AT_EPOCH":"5253","COUNTRY_CODE":"US","TLE_LINE1":"1 47827U 21018AS  22041.80134507  .00001255  00000-0  10317-3 0  9995","MEAN_MOTION_DOT":"0.00001255","PERIOD":"95.593","NORAD_CAT_ID":"47827","RA_OF_ASC_NODE":"81.0205","GP_ID":"195715145","ARG_OF_PERICENTER":"59.7936","DECAY_DATE":null,"OBJECT_NAME":"STARLINK-2413","EPHEMERIS_TYPE":"0","INCLINATION":"53.0552","FILE":"3297147","TIME_SYSTEM":"UTC","OBJECT_ID":"2021-018AS","ELEMENT_SET_NO":"999","SEMIMAJOR_AXIS":"6925.371","CLASSIFICATION_TYPE":"U","MEAN_ELEMENT_THEORY":"SGP4","BSTAR":"0.00010317000000","LAUNCH_DATE":"2021-03-11","EPOCH":"2022-02-10T19:13:56.214048","SITE":"AFETR","REF_FRAME":"TEME","TLE_LINE2":"2 47827  53.0552  81.0205 0001410  59.7936 300.3192 15.06392620 52538","OBJECT_TYPE":"PAYLOAD","MEAN_ANOMALY":"300.3192","ECCENTRICITY":"0.00014100","PERIAPSIS":"546.260","RCS_SIZE":"LARGE","MEAN_MOTION_DDOT":"0.0000000000000","MEAN_MOTION":"15.06392620","CENTER_NAME":"EARTH","APOAPSIS":"548.213"},{"GP_ID":"195713894","ARG_OF_PERICENTER":"51.3265","OBJECT_NAME":"STARLINK-2415","DECAY_DATE":null,"EPHEMERIS_TYPE":"0","INCLINATION":"53.0545","FILE":"3297147","TIME_SYSTEM":"UTC","OBJECT_ID":"2021-018AT","ELEMENT_SET_NO":"999","SEMIMAJOR_AXIS":"6925.312","CLASSIFICATION_TYPE":"U","MEAN_ELEMENT_THEORY":"SGP4","REV_AT_EPOCH":"5221","COUNTRY_CODE":"US","TLE_LINE1":"1 47828U 21018AT  22041.89259790  .00008278  00000-0  57381-3 0  9991","MEAN_MOTION_DOT":"0.00008278","PERIOD":"95.591","NORAD_CAT_ID":"47828","RA_OF_ASC_NODE":"100.6096","ECCENTRICITY":"0.00016740","RCS_SIZE":"LARGE","PERIAPSIS":"546.018","MEAN_MOTION_DDOT":"0.0000000000000","MEAN_MOTION":"15.06411828","CENTER_NAME":"EARTH","APOAPSIS":"548.337","BSTAR":"0.00057381000000","LAUNCH_DATE":"2021-03-11","EPOCH":"2022-02-10T21:25:20.458560","REF_FRAME":"TEME","SITE":"AFETR","TLE_LINE2":"2 47828  53.0545 100.6096 0001674  51.3265 308.7873 15.06411828 52217","OBJECT_TYPE":"PAYLOAD","MEAN_ANOMALY":"308.7873"},{"SITE":"AFETR","REF_FRAME":"TEME","TLE_LINE2":"2 47829  53.0550 102.3157 0001595  63.7148 296.4005 15.06410492 52148","OBJECT_TYPE":"PAYLOAD","MEAN_ANOMALY":"296.4005","BSTAR":"0.00022564000000","LAUNCH_DATE":"2021-03-11","EPOCH":"2022-02-10T12:18:39.713760","MEAN_MOTION":"15.06410492","CENTER_NAME":"EARTH","APOAPSIS":"548.286","ECCENTRICITY":"0.00015950","PERIAPSIS":"546.077","RCS_SIZE":"MEDIUM","MEAN_MOTION_DDOT":"0.0000000000000","TLE_LINE1":"1 47829U 21018AU  22041.51295965  .00003082  00000-0  22564-3 0  9998","MEAN_MOTION_DOT":"0.00003082","PERIOD":"95.591","NORAD_CAT_ID":"47829","RA_OF_ASC_NODE":"102.3157","REV_AT_EPOCH":"5214","COUNTRY_CODE":"US","INCLINATION":"53.0550","FILE":"3296865","TIME_SYSTEM":"UTC","OBJECT_ID":"2021-018AU","ELEMENT_SET_NO":"999","SEMIMAJOR_AXIS":"6925.316","MEAN_ELEMENT_THEORY":"SGP4","CLASSIFICATION_TYPE":"U","GP_ID":"195683362","ARG_OF_PERICENTER":"63.7148","DECAY_DATE":null,"OBJECT_NAME":"STARLINK-2416","EPHEMERIS_TYPE":"0"}];
